{"type": "FeatureCollection", "features": [ {"type": "Feature", "properties": {"norad_id": 66366, "name": "STARLINK-35845", "group": "last-30-days", "lat": 27.918678176961837, "lon": -20.360914657677267, "alt_km": 387.33002762756405, "timestamp": "2025-12-04T10:51:48.874635+00:00", "meta": {"OBJECT_NAME": "STARLINK-35845", "OBJECT_ID": "2025-254U", "EPOCH": "2025-12-04T04:00:03.000096", "MEAN_MOTION": 15.60100585, "ECCENTRICITY": 0.0001216, "INCLINATION": 53.1593, "RA_OF_ASC_NODE": 317.6193, "ARG_OF_PERICENTER": 89.2051, "MEAN_ANOMALY": 140.4674, "EPHEMERIS_TYPE": 0, "CLASSIFICATION_TYPE": "U", "NORAD_CAT_ID": 66366, "ELEMENT_SET_NO": 999, "REV_AT_EPOCH": 554, "BSTAR": -0.028251, "MEAN_MOTION_DOT": -0.02043538, "MEAN_MOTION_DDOT": 0}, "tle": {"line1": "1 66366U 25254U   25338.16670139 -.02043538  00000+0 -28251-1 0  9994", "line2": "2 66366  53.1593 317.6193 0001216  89.2051 140.4674 15.60100585  5541"}}, "geometry": {"type": "Point", "coordinates": [-20.360914657677267, 27.918678176961837]}}, {"type": "Feature", "properties": {"norad_id": 66367, "name": "STARLINK-35846", "group": "last-30-days", "lat": 30.702159427979037, "lon": -17.34112119092701, "alt_km": 386.81262725070974, "timestamp": "2025-12-04T10:51:48.874645+00:00", "meta": {"OBJECT_NAME": "STARLINK-35846", "OBJECT_ID": "2025-254V", "EPOCH": "2025-12-04T04:00:03.000096", "MEAN_MOTION": 15.60101002, "ECCENTRICITY": 0.0001366, "INCLINATION": 53.1593, "RA_OF_ASC_NODE": 317.6111, "ARG_OF_PERICENTER": 93.6672, "MEAN_ANOMALY": 139.8375, "EPHEMERIS_TYPE": 0, "CLASSIFICATION_TYPE": "U", "NORAD_CAT_ID": 66367, "ELEMENT_SET_NO": 999, "REV_AT_EPOCH": 549, "BSTAR": -0.028224, "MEAN_MOTION_DOT": -0.02041957, "MEAN_MOTION_DDOT": 0}, "tle": {"line1": "1 66367U 25254V   25338.16670139 -.02041957  00000+0 -28224-1 0  9998", "line2": "2 66367  53.1593 317.6111 0001366  93.6672 139.8375 15.60101002  5495"}}, "geometry": {"type": "Point", "coordinates": [-17.34112119092701, 30.702159427979037]}}, {"type": "Feature", "properties": {"norad_id": 66368, "name": "STARLINK-34861", "group": "last-30-days", "lat": 30.519471308441076, "lon": 109.78240745923458, "alt_km": 341.3344537786734, "timestamp": "2025-12-04T10:51:48.874669+00:00", "meta": {"OBJECT_NAME": "STARLINK-34861", "OBJECT_ID": "2025-254W", "EPOCH": "2025-12-04T02:39:07.892928", "MEAN_MOTION": 15.7434685, "ECCENTRICITY": 0.0001183, "INCLINATION": 53.1567, "RA_OF_ASC_NODE": 317.7146, "ARG_OF_PERICENTER": 123.9885, "MEAN_ANOMALY": 236.1247, "EPHEMERIS_TYPE": 0, "CLASSIFICATION_TYPE": "U", "NORAD_CAT_ID": 66368, "ELEMENT_SET_NO": 999, "REV_AT_EPOCH": 432, "BSTAR": 0.0023569, "MEAN_MOTION_DOT": 0.00362265, "MEAN_MOTION_DDOT": 0}, "tle": {"line1": "1 66368U 25254W   25338.11050802  .00362265  00000+0  23569-2 0  9995", "line2": "2 66368  53.1567 317.7146 0001183 123.9885 236.1247 15.74346850  4323"}}, "geometry": {"type": "Point", "coordinates": [109.78240745923458, 30.519471308441076]}}, {"type": "Feature", "properties": {"norad_id": 66369, "name": "STARLINK-35795", "group": "last-30-days", "lat": 31.88240116717714, "lon": 108.21816785433273, "alt_km": 339.92683030965327, "timestamp": "2025-12-04T10:51:48.874681+00:00", "meta": {"OBJECT_NAME": "STARLINK-35795", "OBJECT_ID": "2025-254X", "EPOCH": "2025-12-04T02:39:36.815328", "MEAN_MOTION": 15.74349696, "ECCENTRICITY": 0.0003045, "INCLINATION": 53.1567, "RA_OF_ASC_NODE": 317.7168, "ARG_OF_PERICENTER": 147.1731, "MEAN_ANOMALY": 212.9479, "EPHEMERIS_TYPE": 0, "CLASSIFICATION_TYPE": "U", "NORAD_CAT_ID": 66369, "ELEMENT_SET_NO": 999, "REV_AT_EPOCH": 432, "BSTAR": 0.0021458, "MEAN_MOTION_DOT": 0.00328479, "MEAN_MOTION_DDOT": 0}, "tle": {"line1": "1 66369U 25254X   25338.11084277  .00328479  00000+0  21458-2 0  9993", "line2": "2 66369  53.1567 317.7168 0003045 147.1731 212.9479 15.74349696  4325"}}, "geometry": {"type": "Point", "coordinates": [108.21816785433273, 31.88240116717714]}}, {"type": "Feature", "properties": {"norad_id": 66370, "name": "STARLINK-35824", "group": "last-30-days", "lat": 29.0180901658079, "lon": 111.43304273429094, "alt_km": 341.71338129898595, "timestamp": "2025-12-04T10:51:48.874691+00:00", "meta": {"OBJECT_NAME": "STARLINK-35824", "OBJECT_ID": "2025-254Y", "EPOCH": "2025-12-04T02:38:39.081120", "MEAN_MOTION": 15.74459234, "ECCENTRICITY": 3.67e-05, "INCLINATION": 53.1568, "RA_OF_ASC_NODE": 317.7129, "ARG_OF_PERICENTER": 67.6917, "MEAN_ANOMALY": 292.4142, "EPHEMERIS_TYPE": 0, "CLASSIFICATION_TYPE": "U", "NORAD_CAT_ID": 66370, "ELEMENT_SET_NO": 999, "REV_AT_EPOCH": 432, "BSTAR": 0.0031685, "MEAN_MOTION_DOT": 0.00497732, "MEAN_MOTION_DDOT": 0}, "tle": {"line1": "1 66370U 25254Y   25338.11017455  .00497732  00000+0  31685-2 0  9991", "line2": "2 66370  53.1568 317.7129 0000367  67.6917 292.4142 15.74459234  4321"}}, "geometry": {"type": "Point", "coordinates": [111.43304273429094, 29.0180901658079]}}, {"type": "Feature", "properties": {"norad_id": 66371, "name": "STARLINK-35804", "group": "last-30-days", "lat": 26.3791358635163, "lon": 114.17226538908277, "alt_km": 342.64050069842597, "timestamp": "2025-12-04T10:51:48.874703+00:00", "meta": {"OBJECT_NAME": "STARLINK-35804", "OBJECT_ID": "2025-254Z", "EPOCH": "2025-12-04T04:09:05.558400", "MEAN_MOTION": 15.74336178, "ECCENTRICITY": 8.99e-05, "INCLINATION": 53.1566, "RA_OF_ASC_NODE": 317.3925, "ARG_OF_PERICENTER": 86.87, "MEAN_ANOMALY": 273.2423, "EPHEMERIS_TYPE": 0, "CLASSIFICATION_TYPE": "U", "NORAD_CAT_ID": 66371, "ELEMENT_SET_NO": 999, "REV_AT_EPOCH": 433, "BSTAR": 0.0022578, "MEAN_MOTION_DOT": 0.00346193, "MEAN_MOTION_DDOT": 0}, "tle": {"line1": "1 66371U 25254Z   25338.17298100  .00346193  00000+0  22578-2 0  9991", "line2": "2 66371  53.1566 317.3925 0000899  86.8700 273.2423 15.74336178  4334"}}, "geometry": {"type": "Point", "coordinates": [114.17226538908277, 26.3791358635163]}}, {"type": "Feature", "properties": {"norad_id": 66372, "name": "STARLINK-35821", "group": "last-30-days", "lat": 27.742992162291728, "lon": 112.78129182677183, "alt_km": 341.68397765578356, "timestamp": "2025-12-04T10:51:48.874714+00:00", "meta": {"OBJECT_NAME": "STARLINK-35821", "OBJECT_ID": "2025-254AA", "EPOCH": "2025-12-04T02:38:09.425184", "MEAN_MOTION": 15.74311986, "ECCENTRICITY": 0.0001894, "INCLINATION": 53.1567, "RA_OF_ASC_NODE": 317.7113, "ARG_OF_PERICENTER": 102.3262, "MEAN_ANOMALY": 257.797, "EPHEMERIS_TYPE": 0, "CLASSIFICATION_TYPE": "U", "NORAD_CAT_ID": 66372, "ELEMENT_SET_NO": 999, "REV_AT_EPOCH": 432, "BSTAR": 0.0023713, "MEAN_MOTION_DOT": 0.00364005, "MEAN_MOTION_DDOT": 0}, "tle": {"line1": "1 66372U 25254AA  25338.10983131  .00364005  00000+0  23713-2 0  9994", "line2": "2 66372  53.1567 317.7113 0001894 102.3262 257.7970 15.74311986  4325"}}, "geometry": {"type": "Point", "coordinates": [112.78129182677183, 27.742992162291728]}}, {"type": "Feature", "properties": {"norad_id": 66373, "name": "STARLINK-35809", "group": "last-30-days", "lat": 24.857422280086666, "lon": 115.67226354713901, "alt_km": 342.6715618044909, "timestamp": "2025-12-04T10:51:48.874724+00:00", "meta": {"OBJECT_NAME": "STARLINK-35809", "OBJECT_ID": "2025-254AB", "EPOCH": "2025-12-04T02:37:11.292672", "MEAN_MOTION": 15.74358169, "ECCENTRICITY": 0.0001053, "INCLINATION": 53.1566, "RA_OF_ASC_NODE": 317.7054, "ARG_OF_PERICENTER": 75.9118, "MEAN_ANOMALY": 284.2018, "EPHEMERIS_TYPE": 0, "CLASSIFICATION_TYPE": "U", "NORAD_CAT_ID": 66373, "ELEMENT_SET_NO": 999, "REV_AT_EPOCH": 432, "BSTAR": 0.0026661, "MEAN_MOTION_DOT": 0.00412582, "MEAN_MOTION_DDOT": 0}, "tle": {"line1": "1 66373U 25254AB  25338.10915848  .00412582  00000+0  26661-2 0  9994", "line2": "2 66373  53.1566 317.7054 0001053  75.9118 284.2018 15.74358169  4323"}}, "geometry": {"type": "Point", "coordinates": [115.67226354713901, 24.857422280086666]}}, {"type": "Feature", "properties": {"norad_id": 66374, "name": "STARLINK-35831", "group": "last-30-days", "lat": 23.365451023976508, "lon": 117.09327413612944, "alt_km": 341.63774326002385, "timestamp": "2025-12-04T10:51:48.874734+00:00", "meta": {"OBJECT_NAME": "STARLINK-35831", "OBJECT_ID": "2025-254AC", "EPOCH": "2025-12-04T02:36:41.952096", "MEAN_MOTION": 15.74376092, "ECCENTRICITY": 0.0002461, "INCLINATION": 53.1567, "RA_OF_ASC_NODE": 317.7024, "ARG_OF_PERICENTER": 116.307, "MEAN_ANOMALY": 243.8203, "EPHEMERIS_TYPE": 0, "CLASSIFICATION_TYPE": "U", "NORAD_CAT_ID": 66374, "ELEMENT_SET_NO": 999, "REV_AT_EPOCH": 432, "BSTAR": 0.0028555, "MEAN_MOTION_DOT": 0.00443929, "MEAN_MOTION_DDOT": 0}, "tle": {"line1": "1 66374U 25254AC  25338.10881889  .00443929  00000+0  28555-2 0  9995", "line2": "2 66374  53.1567 317.7024 0002461 116.3070 243.8203 15.74376092  4325"}}, "geometry": {"type": "Point", "coordinates": [117.09327413612944, 23.365451023976508]}}, {"type": "Feature", "properties": {"norad_id": 66375, "name": "STARLINK-35826", "group": "last-30-days", "lat": 22.048870944370428, "lon": 118.31178482404066, "alt_km": 342.9987781061027, "timestamp": "2025-12-04T10:51:48.874744+00:00", "meta": {"OBJECT_NAME": "STARLINK-35826", "OBJECT_ID": "2025-254AD", "EPOCH": "2025-12-04T02:36:12.919104", "MEAN_MOTION": 15.74307679, "ECCENTRICITY": 0.0001369, "INCLINATION": 53.1565, "RA_OF_ASC_NODE": 317.7005, "ARG_OF_PERICENTER": 116.471, "MEAN_ANOMALY": 243.645, "EPHEMERIS_TYPE": 0, "CLASSIFICATION_TYPE": "U", "NORAD_CAT_ID": 66375, "ELEMENT_SET_NO": 999, "REV_AT_EPOCH": 432, "BSTAR": 0.0017206, "MEAN_MOTION_DOT": 0.00260646, "MEAN_MOTION_DDOT": 0}, "tle": {"line1": "1 66375U 25254AD  25338.10848286  .00260646  00000+0  17206-2 0  9994", "line2": "2 66375  53.1565 317.7005 0001369 116.4710 243.6450 15.74307679  4328"}}, "geometry": {"type": "Point", "coordinates": [118.31178482404066, 22.048870944370428]}}]}